NORAD_CAT_ID,OBJECT_NAME,OBJECT_TYPE,EPOCH,MEAN_MOTION,ECCENTRICITY,INCLINATION,RA_OF_ASC_NODE,ARG_OF_PERICENTER,MEAN_ANOMALY,BSTAR,MEAN_MOTION_DOT,MEAN_MOTION_DDOT,TLE_LINE0,TLE_LINE1,TLE_LINE2,SEMIMAJOR_AXIS,PERIOD,APOGEE,PERIGEE,DECAYED
55284.0,STARLINK-5337,PAYLOAD,2023-12-30 22:17:19,14.98333041,0.0002384,69.9996,260.7649,247.2577,112.833,0.00010702,1.184e-05,0.0,0 STARLINK-5337,1 55284U 23010R   23364.92869849  .00001184  00000-0  10702-3 0  9990,2 55284  69.9996 260.7649 0002384 247.2577 112.8330 14.98333041 52987,6950.183,96.107,573.705,570.392,0.0
55284.0,STARLINK-5337,PAYLOAD,2023-12-31 19:07:05,14.98317385,0.0002265,70.0011,258.5813,227.948,132.1486,-3.3977e-05,-4.98e-06,0.0,0 STARLINK-5337,1 55284U 23010R   23365.79659469 -.00000498  00000-0 -33977-4 0  9990,2 55284  70.0011 258.5813 0002265 227.9480 132.1486 14.98317385 52814,6950.232,96.108,573.671,570.523,0.0
55284.0,STARLINK-5337,PAYLOAD,2023-12-31 20:43:13,14.98316074,0.0002508,70.001,258.4127,225.2852,134.8103,-6.0072e-05,-8.09e-06,0.0,0 STARLINK-5337,1 55284U 23010R   23365.86335548 -.00000809  00000-0 -60072-4 0  9999,2 55284  70.0010 258.4127 0002508 225.2852 134.8103 14.98316074 53128,6950.236,96.108,573.844,570.358,0.0
55284.0,STARLINK-5337,PAYLOAD,2024-01-01 03:07:46,14.98311833,0.0002349,69.9998,257.7362,247.8082,112.2828,-0.00010968,-1.401e-05,0.0,0 STARLINK-5337,1 55284U 23010R   24001.13040194 -.00001401  00000-0 -10968-3 0  9994,2 55284  69.9998 257.7362 0002349 247.8082 112.2828 14.98311833 52863,6950.249,96.108,573.747,570.481,0.0
55284.0,STARLINK-5337,PAYLOAD,2024-01-01 19:09:06,14.98333066,0.000344,69.997,256.0495,277.805,82.2718,0.00010653,1.178e-05,0.0,0 STARLINK-5337,1 55284U 23010R   24001.79798738  .00001178  00000-0  10653-3 0  9990,2 55284  69.9970 256.0495 0003440 277.8050  82.2718 14.98333066 52960,6950.183,96.107,574.439,569.658,0.0
55284.0,STARLINK-5337,PAYLOAD,2024-01-01 22:21:22,14.98334896,0.0002951,69.9977,255.7128,274.3425,85.7397,0.00016436,1.869e-05,0.0,0 STARLINK-5337,1 55284U 23010R   24001.93150633  .00001869  00000-0  16436-3 0  9994,2 55284  69.9977 255.7128 0002951 274.3425  85.7397 14.98334896 53289,6950.178,96.107,574.094,569.992,0.0
55284.0,STARLINK-5337,PAYLOAD,2024-01-02 03:09:45,14.98339687,0.0002259,69.9991,255.2085,254.0201,106.071,0.00028002,3.25e-05,0.0,0 STARLINK-5337,1 55284U 23010R   24002.13178156  .00003250  00000-0  28002-3 0  9995,2 55284  69.9991 255.2085 0002259 254.0201 106.0710 14.98339687 53010,6950.163,96.106,573.598,570.458,0.0
55284.0,STARLINK-5337,PAYLOAD,2024-01-02 22:23:22,14.9835348,0.0002285,70.0,253.1887,254.3824,105.7083,0.00070033,8.278e-05,0.0,0 STARLINK-5337,1 55284U 23010R   24002.93289794  .00008278  00000-0  70033-3 0  9990,2 55284  70.0000 253.1887 0002285 254.3824 105.7083 14.98353480 53436,6950.12,96.105,573.573,570.397,0.0
55284.0,STARLINK-5337,PAYLOAD,2024-01-03 01:35:38,14.98348059,0.0002539,69.9997,252.8516,264.3156,95.7714,0.00032344,3.77e-05,0.0,0 STARLINK-5337,1 55284U 23010R   24003.06641820  .00003770  00000-0  32344-3 0  9992,2 55284  69.9997 252.8516 0002539 264.3156  95.7714 14.98348059 53451,6950.137,96.106,573.767,570.237,0.0
55284.0,STARLINK-5337,PAYLOAD,2024-01-03 19:13:07,14.98339564,0.0002399,70.0002,251.0006,250.7704,109.3195,-4.8337e-05,-6.7e-06,0.0,0 STARLINK-5337,1 55284U 23010R   24003.80077643 -.00000670  00000-0 -48337-4 0  9998,2 55284  70.0002 251.0006 0002399 250.7704 109.3195 14.98339564 53263,6950.163,96.106,573.696,570.361,0.0
55284.0,STARLINK-5337,PAYLOAD,2024-01-03 22:25:23,14.98340077,0.0002394,70.0003,250.6647,249.5818,110.5084,-3.1063e-05,-4.64e-06,0.0,0 STARLINK-5337,1 55284U 23010R   24003.93429596 -.00000464  00000-0 -31063-4 0  9999,2 55284  70.0003 250.6647 0002394 249.5818 110.5084 14.98340077 53584,6950.162,96.106,573.691,570.363,0.0
55284.0,STARLINK-5337,PAYLOAD,2024-01-04 00:01:31,14.98339186,0.0002361,70.0002,250.4959,249.8135,110.277,-3.9214e-05,-5.61e-06,0.0,0 STARLINK-5337,1 55284U 23010R   24004.00105571 -.00000561  00000-0 -39214-4 0  9996,2 55284  70.0002 250.4959 0002361 249.8135 110.2770 14.98339186 53595,6950.164,96.106,573.67,570.389,0.0
55284.0,STARLINK-5337,PAYLOAD,2024-01-04 20:51:15,14.98338824,0.0002278,70.0001,248.3077,254.1309,105.9599,-3.561e-06,-1.35e-06,0.0,0 STARLINK-5337,1 55284U 23010R   24004.86893352 -.00000135  00000-0 -35610-5 0  9995,2 55284  70.0001 248.3077 0002278 254.1309 105.9599 14.98338824 53420,6950.166,96.106,573.614,570.447,0.0
55284.0,STARLINK-5337,PAYLOAD,2024-01-04 22:27:24,14.98335631,0.0002178,70.0007,248.1392,244.7347,115.3586,-9.8823e-06,-2.11e-06,0.0,0 STARLINK-5337,1 55284U 23010R   24004.93569459 -.00000211  00000-0 -98823-5 0  9991,2 55284  70.0007 248.1392 0002178 244.7347 115.3586 14.98335631 53738,6950.175,96.107,573.554,570.527,0.0
55284.0,STARLINK-5337,PAYLOAD,2024-01-05 01:39:40,14.98335971,0.0002132,70.0,247.8014,268.1233,91.9682,2.0372e-05,1.5e-06,0.0,0 STARLINK-5337,1 55284U 23010R   24005.06921604  .00000150  00000-0  20372-4 0  9993,2 55284  70.0000 247.8014 0002132 268.1233  91.9682 14.98335971 53757,6950.174,96.107,573.521,570.558,0.0
55284.0,STARLINK-5337,PAYLOAD,2024-01-05 19:17:08,14.98334651,0.0002239,70.0003,245.9511,248.5103,111.5817,0.0001563,1.773e-05,0.0,0 STARLINK-5337,1 55284U 23010R   24005.80357565  .00001773  00000-0  15630-3 0  9996,2 55284  70.0003 245.9511 0002239 248.5103 111.5817 14.98334651 53569,6950.179,96.107,573.6,570.487,0.0
55284.0,STARLINK-5337,PAYLOAD,2024-01-05 22:29:24,14.98336142,0.0002378,69.9995,245.6135,260.179,99.9101,0.00016794,1.912e-05,0.0,0 STARLINK-5337,1 55284U 23010R   24005.93709382  .00001912  00000-0  16794-3 0  9995,2 55284  69.9995 245.6135 0002378 260.1790  99.9101 14.98336142 53888,6950.174,96.107,573.692,570.386,0.0
55284.0,STARLINK-5337,PAYLOAD,2024-01-06 01:41:40,14.9833703,0.0002471,69.9992,245.2765,265.414,94.6736,0.00017186,1.959e-05,0.0,0 STARLINK-5337,1 55284U 23010R   24006.07061320  .00001959  00000-0  17186-3 0  9991,2 55284  69.9992 245.2765 0002471 265.4140  94.6736 14.98337030 53907,6950.171,96.107,573.754,570.319,0.0
55284.0,STARLINK-5337,PAYLOAD,2024-01-06 19:19:09,14.98337183,0.0002452,69.9994,243.4243,270.6511,89.4367,0.00013737,1.547e-05,0.0,0 STARLINK-5337,1 55284U 23010R   24006.80497202  .00001547  00000-0  13737-3 0  9995,2 55284  69.9994 243.4243 0002452 270.6511  89.4367 14.98337183 53719,6950.171,96.107,573.74,570.331,0.0
55284.0,STARLINK-5337,PAYLOAD,2024-01-06 22:31:25,14.98336408,0.0002444,69.9996,243.0875,273.908,86.1799,0.00011979,1.337e-05,0.0,0 STARLINK-5337,1 55284U 23010R   24006.93849173  .00001337  00000-0  11979-3 0  9990,2 55284  69.9996 243.0875 0002444 273.9080  86.1799 14.98336408 54034,6950.173,96.107,573.737,570.339,0.0
55284.0,STARLINK-5337,PAYLOAD,2024-01-07 01:43:41,14.98336083,0.0002418,69.9994,242.7515,269.0752,91.013,0.00012287,1.374e-05,0.0,0 STARLINK-5337,1 55284U 23010R   24007.07201140  .00001374  00000-0  12287-3 0  9996,2 55284  69.9994 242.7515 0002418 269.0752  91.0130 14.98336083 54057,6950.174,96.107,573.72,570.359,0.0
55284.0,STARLINK-5337,PAYLOAD,2024-01-07 19:21:10,14.98334229,0.0002344,69.9982,240.8997,268.7006,91.3885,0.00010404,1.149e-05,0.0,0 STARLINK-5337,1 55284U 23010R   24007.80637310  .00001149  00000-0  10404-3 0  9998,2 55284  69.9982 240.8997 0002344 268.7006  91.3885 14.98334229 53861,6950.18,96.107,573.674,570.416,0.0
55284.0,STARLINK-5337,PAYLOAD,2024-01-07 22:33:26,14.98333354,0.0002348,69.9982,240.5632,269.0066,91.0824,8.145e-05,8.79e-06,0.0,0 STARLINK-5337,1 55284U 23010R   24007.93989313  .00000879  00000-0  81450-4 0  9994,2 55284  69.9982 240.5632 0002348 269.0066  91.0824 14.98333354 54182,6950.183,96.107,573.679,570.416,0.0
55284.0,STARLINK-5337,PAYLOAD,2024-01-08 01:45:42,14.98333892,0.0002343,69.9982,240.2266,269.107,90.9821,7.9229e-05,8.53e-06,0.0,0 STARLINK-5337,1 55284U 23010R   24008.07341231  .00000853  00000-0  79229-4 0  9994,2 55284  69.9982 240.2266 0002343 269.1070  90.9821 14.98333892 54208,6950.181,96.107,573.674,570.417,0.0
55284.0,STARLINK-5337,PAYLOAD,2024-01-08 19:23:11,14.98333906,0.000227,69.9985,238.3753,268.0256,92.0643,6.6777e-05,7.04e-06,0.0,0 STARLINK-5337,1 55284U 23010R   24008.80777147  .00000704  00000-0  66777-4 0  9993,2 55284  69.9985 238.3753 0002270 268.0256  92.0643 14.98333906 54013,6950.181,96.107,573.624,570.468,0.0
55284.0,STARLINK-5337,PAYLOAD,2024-01-08 22:35:27,14.98333355,0.0002274,69.9984,238.0386,267.0362,93.0537,5.4268e-05,5.55e-06,0.0,0 STARLINK-5337,1 55284U 23010R   24008.94129163  .00000555  00000-0  54268-4 0  9993,2 55284  69.9984 238.0386 0002274 267.0362  93.0537 14.98333355 54338,6950.183,96.107,573.628,570.467,0.0
55284.0,STARLINK-5337,PAYLOAD,2024-01-09 14:36:48,14.98331642,0.0002235,69.9984,236.355,262.887,97.2035,8.6366e-05,9.38e-06,0.0,0 STARLINK-5337,1 55284U 23010R   24009.60889154  .00000938  00000-0  86366-4 0  9999,2 55284  69.9984 236.3550 0002235 262.8870  97.2035 14.98331642 54433,6950.188,96.107,573.606,570.499,0.0
55284.0,STARLINK-5337,PAYLOAD,2024-01-09 19:25:12,14.9833191,0.0002247,69.9985,235.8502,260.3149,99.7757,8.1135e-05,8.75e-06,0.0,0 STARLINK-5337,1 55284U 23010R   24009.80917110  .00000875  00000-0  81135-4 0  9994,2 55284  69.9985 235.8502 0002247 260.3149  99.7757 14.98331910 54166,6950.187,96.107,573.614,570.49,0.0
55284.0,STARLINK-5337,PAYLOAD,2024-01-09 22:37:28,14.98331777,0.0002247,69.9984,235.5135,260.3051,99.7854,7.5941e-05,8.13e-06,0.0,0 STARLINK-5337,1 55284U 23010R   24009.94269116  .00000813  00000-0  75941-4 0  9995,2 55284  69.9984 235.5135 0002247 260.3051  99.7854 14.98331777 54480,6950.187,96.107,573.614,570.491,0.0
55284.0,STARLINK-5337,PAYLOAD,2024-01-10 00:13:36,14.98332073,0.0002245,69.9984,235.3452,260.5321,99.5585,7.7106e-05,8.27e-06,0.0,0 STARLINK-5337,1 55284U 23010R   24010.00945087  .00000827  00000-0  77106-4 0  9992,2 55284  69.9984 235.3452 0002245 260.5321  99.5585 14.98332073 54490,6950.186,96.107,573.612,570.491,0.0
